QIANFAN-17              
1 60395U 24140S   25354.21439715  .00000075  00000+0  97209-4 0  9997
2 60395  88.9780 298.6617 0014440 177.0971 183.0266 13.50978112 69142
QIANFAN-18              
1 60396U 24140T   25354.19381610  .00000072  00000+0  92683-4 0  9993
2 60396  88.9772 298.1968 0014351 159.3073 200.8662 13.50978150 68537
QIANFAN-19              
1 61552U 24185A   25354.22592800  .00000379  00000+0  19115-3 0  9994
2 61552  88.9819  77.0856 0004781 281.5460  78.5190 14.14302795 70725
QIANFAN-20              
1 61553U 24185B   25354.14537346  .00000341  00000+0  18980-3 0  9998
2 61553  88.9818  77.4261 0004455 338.3442  21.7552 14.08851321 70536
QIANFAN-21              
1 61554U 24185C   25354.20640567  .00000504  00000+0  21898-3 0  9999
2 61554  88.9734  76.1070 0009670 350.3860   9.7145 14.22617268 71036
QIANFAN-22              
1 61555U 24185D   25354.22416201  .00000171  00000+0  13660-3 0  9996
2 61555  88.9802  78.4282 0005511 350.8574   9.2496 13.86305669 69972
QIANFAN-23              
1 61556U 24185E   25354.19077779  .00000365  00000+0  17700-3 0  9990
2 61556  88.9811  76.8958 0005622 297.4911  62.5705 14.16299235 70803
QIANFAN-24              
1 61557U 24185F   25354.20278217  .00000552  00000+0  23497-3 0  9991
2 61557  88.9792  76.2871 0007273 272.5762  87.4598 14.23819889 71080
